FOSSASAT-2E20 (TAT-O)   
1 63003U 25009DN  26068.70855016  .00016337  00000+0  61863-3 0  9998
2 63003  97.3231 146.2859 0002189 347.5575  12.5610 15.26991080121314
STARLINK-34018          
1 63836U 25093A   26068.44732634  .00034620  00000+0  12626-2 0  9993
2 63836  43.0028  79.3993 0002287 280.0045  80.0548 15.27555100 47932
